IRIDIUM 144             
1 43249U 18030A   24270.54647433  .00000721  00000+0  25025-3 0  9991
2 43249  86.4039 193.1338 0002372  87.7854 272.3613 14.34223769340030
IRIDIUM 149             
1 43250U 18030B   24270.76211424  .00000872  00000+0  30426-3 0  9992
2 43250  86.4039 193.0179 0002516  84.2068 275.9414 14.34220047340082
IRIDIUM 157             
1 43251U 18030C   24271.33930313  .00000867  00000+0  30251-3 0  9992
2 43251  86.4041 192.8163 0002447  75.3369 284.8098 14.34221268340144
IRIDIUM 140             
1 43252U 18030D   24270.73040815  .00000475  00000+0  16260-3 0  9994
2 43252  86.4040 193.0846 0002019  88.4258 271.7169 14.34218248340117
IRIDIUM 145             
1 43253U 18030E   24271.48517223  .00000898  00000+0  31355-3 0  9991
2 43253  86.4041 192.7434 0002523  91.7434 268.4051 14.34222183340151
IRIDIUM 146             
1 43254U 18030F   24271.18706233  .00000826  00000+0  28781-3 0  9990
2 43254  86.4040 192.8822 0002304  90.1791 269.9669 14.34226607340122
IRIDIUM 148             
1 43255U 18030G   24270.52744340  .00000732  00000+0  25416-3 0  9997
2 43255  86.4043 193.1905 0002451  85.1450 275.0026 14.34222134340060
IRIDIUM 142             
1 43256U 18030H   24271.19342763  .00000884  00000+0  30840-3 0  9990
2 43256  86.4039 192.8249 0002603  89.3936 270.7558 14.34220545340120
